{
  "type": "FeatureCollection",
  "features": [
    {
      "type": "Feature",
      "properties": {
        "name": "Zona de Cobertura - Delivery Go Fast",
        "description": "Área de cobertura de servicio de delivery en la ciudad"
      },
      "geometry": {
        "type": "Polygon",
        "coordinates": [
          [
            [
              -78.53443278369669,
              -5.62905578481039
            ],
            [
              -78.54210859227709,
              -5.634327000877491
            ],
            [
              -78.54422156988798,
              -5.6390383445593955
            ],
            [
              -78.5329253620128,
              -5.643776399670415
            ],
            [
              -78.52435578151616,
              -5.647429128694597
            ],
            [
              -78.51528778508674,
              -5.639195172371743
            ],
            [
              -78.52427441604141,
              -5.628080451874297
            ],
            [
              -78.53443278369669,
              -5.62905578481039
            ]
          ]
        ]
      }
    }
  ]
}
